IRIDIUM 57 [-]          
1 25273U 98019B   24008.92106088  .00000418  00000+0  13998-3 0  9999
2 25273  86.3964   5.2255 0002226  88.6388 271.5064 14.35038075349433
IRIDIUM 63 [-]          
1 25286U 98021B   24008.86458743  .00000512  00000+0  17123-3 0  9996
2 25286  86.3992 302.1848 0002216  91.5044 268.6406 14.35556895348459
IRIDIUM 69 [-]          
1 25319U 98026A   24009.05352833  .00000572  00000+0  17646-3 0  9999
2 25319  86.3998 316.9646 0001789  20.3103 339.8166 14.39736972347713
IRIDIUM 71 [-]          
1 25320U 98026B   24008.88082278  .00000534  00000+0  16328-3 0  9998
2 25320  86.3988 311.8395 0003634  54.5229 305.6309 14.40064371348213
IRIDIUM 73 [-]          
1 25344U 98032C   24008.75898540  .00000646  00000+0  16099-3 0  9993
2 25344  86.4413 269.5564 0001923  68.2799 291.8610 14.50229620354379
IRIDIUM 82 [-]          
1 25467U 98051A   24009.12963083  .00009485  00000+0  52680-3 0  9993
2 25467  86.3965   1.2663 0143637  86.2267 275.5378 15.05055481344378
IRIDIUM 2 [-]           
1 25527U 98066A   24008.55931281  .00039897  00000+0  70544-3 0  9996
2 25527  85.5152  45.5884 0003409 172.5202 187.6108 15.50153318382802
